OBJECT_NAME,OBJECT_ID,EPOCH,MEAN_MOTION,ECCENTRICITY,INCLINATION,RA_OF_ASC_NODE,ARG_OF_PERICENTER,MEAN_ANOMALY,EPHEMERIS_TYPE,CLASSIFICATION_TYPE,NORAD_CAT_ID,ELEMENT_SET_NO,REV_AT_EPOCH,BSTAR,MEAN_MOTION_DOT,MEAN_MOTION_DDOT
SL-16 R/B,1994-077B,2026-06-12T05:52:41.447424,14.15572004,.00027271,70.9806,153.5602,331.0651,29.0320,0,U,23405,999,62961,-.56308672E-4,-.158E-5,0
ARIANE 40+ R/B,1995-021B,2026-06-12T04:32:36.544704,14.39830748,.00061018,98.4410,233.3363,209.3715,208.9464,0,U,23561,999,63284,.87914715E-4,.232E-5,0
SL-16 R/B,1995-058B,2026-06-12T04:27:34.625952,14.15505769,.00135278,71.0215,341.8594,327.3224,32.7060,0,U,23705,999,58122,.99978722E-4,.148E-5,0
SL-16 R/B,1996-051B,2026-06-12T05:10:29.854848,14.12444249,.00150477,70.7638,335.1707,344.4151,15.6503,0,U,24298,999,53499,.9074487E-4,.118E-5,0
ORBVIEW 2 (SEASTAR),1997-037A,2026-06-12T05:03:26.617536,14.35551044,.00030676,98.8683,330.0921,126.0485,234.0984,0,U,24883,999,52203,.90329138E-4,.213E-5,0
SL-16 R/B,1998-043G,2026-06-12T02:25:04.038816,14.26067763,.00109256,98.8363,117.2163,99.5918,260.6496,0,U,25400,999,45244,.29335606E-4,.25E-6,0
SL-16 R/B,1998-045B,2026-06-12T05:18:14.529600,14.16204752,.00095041,71.0121,342.7741,247.9061,112.1054,0,U,25407,999,44048,-.52740748E-4,-.152E-5,0
ISS (ZARYA),1998-067A,2026-06-11T23:08:55.780800,15.49182446,.00049318,51.6334,325.9414,175.6343,184.4689,0,U,25544,999,57094,.15344347E-3,.8067E-4,0
CZ-4B R/B,1999-025C,2026-06-12T03:07:18.091200,14.18282603,.00382051,98.6485,205.0957,73.7963,351.8033,0,U,25732,999,40155,.3416587E-4,.28E-6,0
OKEAN-O,1999-039A,2026-06-12T03:26:22.050528,14.80461013,.0001728,97.9317,221.9989,75.3100,284.8304,0,U,25860,999,44836,.6729245E-4,.463E-5,0
SL-16 R/B,1999-039B,2026-06-12T04:04:29.139744,14.81840558,.00137363,97.9838,222.0469,314.6968,45.3125,0,U,25861,999,45085,.62885562E-4,.443E-5,0
DELTA 2 R/B,1999-041E,2026-06-12T01:54:07.056576,14.12006774,.05008705,51.7665,284.2011,266.9170,87.4362,0,U,25876,999,37636,.15061593E-3,.701E-5,0
HELIOS 1B,1999-064A,2026-06-12T06:28:24.913056,14.87994678,.00024724,98.1619,68.2671,97.5200,262.6296,0,U,25977,999,69932,.14990728E-3,.1317E-4,0
TERRA,1999-068A,2026-06-12T05:17:00.074400,14.61099431,.00012006,97.9458,212.9632,209.6098,192.5381,0,U,25994,999,40888,.85020191E-4,.374E-5,0
SL-16 R/B,2000-006B,2026-06-12T06:15:45.018144,14.15835122,.00152619,71.0026,258.9835,30.6962,329.5051,0,U,26070,999,36194,-.10956804E-3,-.263E-5,0
TITAN 4B R/B,2000-047B,2026-06-12T06:59:58.708608,15.10169767,.00456241,67.9873,134.3526,292.1971,67.4341,0,U,26474,999,40719,.1947515E-3,.3125E-4,0
ENVISAT,2002-009A,2026-06-12T07:46:13.486944,14.39063738,.00013459,98.3833,114.7507,89.9282,29.3638,0,U,27386,999,27278,.35199562E-4,.66E-6,0
IDEFIX & ARIANE 42P R/B,2002-021B,2026-06-12T05:38:55.618080,14.31079968,.00105797,98.5943,100.7721,270.2174,89.7797,0,U,27422,999,25754,.87726496E-4,.187E-5,0
AQUA,2002-022A,2026-06-12T06:32:34.679904,14.62151241,.00013013,98.4275,132.4573,53.1896,53.9572,0,U,27424,999,28255,.1587061E-3,.749E-5,0
CZ-4B R/B,2002-024C,2026-06-12T03:31:53.715936,14.14563491,.00511467,98.8700,215.9999,114.2502,304.6582,0,U,27432,999,24259,.34514775E-4,.23E-6,0
MIDORI II (ADEOS-II),2002-056A,2026-06-12T04:01:50.740032,14.29347081,.00022149,98.7877,122.3852,83.4074,276.7360,0,U,27597,999,22379,.11029084E-3,.236E-5,0
H-2A R/B,2002-056E,2026-06-12T02:48:29.973312,14.33819873,.0069001,98.3311,119.9764,239.8962,130.0036,0,U,27601,999,22764,.63909046E-4,.14E-5,0
CZ-4B R/B,2003-049C,2026-06-12T06:43:33.250080,14.55097165,.00471116,98.6896,161.9314,303.9306,55.7415,0,U,28059,999,20035,.78793115E-4,.293E-5,0
CZ-2C R/B,2004-012C,2026-06-11T23:05:09.743712,15.77982003,.00089647,97.7094,238.0208,306.0599,53.9836,0,U,28222,999,21907,.53674371E-3,.91541E-3,0
SL-16 R/B,2004-021B,2026-06-12T01:40:49.745280,14.14610661,.00074386,71.0016,34.4294,260.6285,99.3996,0,U,28353,999,13618,-.11894369E-3,-.276E-5,0
CZ-4B R/B,2004-035C,2026-06-12T02:22:03.372096,15.30552576,.00305124,97.3372,196.2292,356.5151,3.5873,0,U,28415,999,19434,.25172107E-3,.7464E-4,0
CZ-2C R/B,2004-046B,2026-06-12T06:47:59.156448,14.27025510,.01382675,98.1949,72.3704,234.8661,123.9500,0,U,28480,999,12199,.33936895E-4,.49E-6,0
ARIANE 5 R/B,2004-049H,2026-06-12T06:43:39.304128,14.85442988,.0084807,98.2717,335.3439,45.1959,315.6109,0,U,28499,999,15983,.79512488E-4,.666E-5,0
CZ-2D R/B,2005-024B,2026-06-12T07:25:33.114720,15.69032407,.00042157,97.3487,182.4962,64.2592,295.9104,0,U,28738,999,15457,.52601961E-3,.60895E-3,0
ALOS (DAICHI),2006-002A,2026-06-12T02:55:15.693024,14.70039856,.00016367,98.1322,118.7049,58.0937,302.0428,0,U,28931,999,8735,.15163619E-3,.86E-5,0
