SL-16 R/B               
1 23405U 94077B   26163.24492416 -.00000158  00000+0 -56309-4 0  9993
2 23405  70.9806 153.5602 0002727 331.0651  29.0320 14.15572004629614
ARIANE 40+ R/B          
1 23561U 95021B   26163.18931186  .00000232  00000+0  87915-4 0  9999
2 23561  98.4410 233.3363 0006101 209.3715 208.9464 14.39830748632846
SL-16 R/B               
1 23705U 95058B   26163.18581743  .00000148  00000+0  99979-4 0  9998
2 23705  71.0215 341.8594 0013527 327.3224  32.7060 14.15505769581229
SL-16 R/B               
1 24298U 96051B   26163.21562332  .00000118  00000+0  90745-4 0  9996
2 24298  70.7638 335.1707 0015047 344.4151  15.6503 14.12444249534998
ORBVIEW 2 (SEASTAR)     
1 24883U 97037A   26163.21072474  .00000213  00000+0  90329-4 0  9998
2 24883  98.8683 330.0921 0003067 126.0485 234.0984 14.35551044522033
SL-16 R/B               
1 25400U 98043G   26163.10074119  .00000025  00000+0  29336-4 0  9999
2 25400  98.8363 117.2163 0010925  99.5918 260.6496 14.26067763452443
SL-16 R/B               
1 25407U 98045B   26163.22100150 -.00000152  00000+0 -52741-4 0  9995
2 25407  71.0121 342.7741 0009504 247.9061 112.1054 14.16204752440483
ISS (ZARYA)             
1 25544U 98067A   26162.96453450  .00008067  00000+0  15344-3 0  9993
2 25544  51.6334 325.9414 0004931 175.6343 184.4689 15.49182446570947
CZ-4B R/B               
1 25732U 99025C   26163.13007050  .00000028  00000+0  34166-4 0  9991
2 25732  98.6485 205.0957 0038205  73.7963 351.8033 14.18282603401555
OKEAN-O                 
1 25860U 99039A   26163.14331077  .00000463  00000+0  67292-4 0  9997
2 25860  97.9317 221.9989 0001728  75.3100 284.8304 14.80461013448365
SL-16 R/B               
1 25861U 99039B   26163.16978171  .00000443  00000+0  62886-4 0  9994
2 25861  97.9838 222.0469 0013736 314.6968  45.3125 14.81840558450856
DELTA 2 R/B             
1 25876U 99041E   26163.07924834  .00000701  00000+0  15062-3 0  9990
2 25876  51.7665 284.2011 0500870 266.9170  87.4362 14.12006774376366
HELIOS 1B               
1 25977U 99064A   26163.26973279  .00001317  00000+0  14991-3 0  9999
2 25977  98.1619  68.2671 0002472  97.5200 262.6296 14.87994678699329
TERRA                   
1 25994U 99068A   26163.22013975  .00000374  00000+0  85020-4 0  9990
2 25994  97.9458 212.9632 0001200 209.6098 192.5381 14.61099431408880
SL-16 R/B               
1 26070U 00006B   26163.26093771 -.00000263  00000+0 -10957-3 0  9991
2 26070  71.0026 258.9835 0015261  30.6962 329.5051 14.15835122361944
TITAN 4B R/B            
1 26474U 00047B   26163.29165172  .00003125  00000+0  19475-3 0  9994
2 26474  67.9873 134.3526 0045624 292.1971  67.4341 15.10169767407190
ENVISAT                 
1 27386U 02009A   26163.32376721  .00000066  00000+0  35200-4 0  9991
2 27386  98.3833 114.7507 0001345  89.9282  29.3638 14.39063738272789
IDEFIX & ARIANE 42P R/B 
1 27422U 02021B   26163.23536595  .00000187  00000+0  87726-4 0  9997
2 27422  98.5943 100.7721 0010579 270.2174  89.7797 14.31079968257548
AQUA                    
1 27424U 02022A   26163.27262361  .00000749  00000+0  15871-3 0  9996
2 27424  98.4275 132.4573 0001301  53.1896  53.9572 14.62151241282558
CZ-4B R/B               
1 27432U 02024C   26163.14714949  .00000023  00000+0  34515-4 0  9999
2 27432  98.8700 215.9999 0051146 114.2502 304.6582 14.14563491242596
MIDORI II (ADEOS-II)    
1 27597U 02056A   26163.16794838  .00000236  00000+0  11029-3 0  9993
2 27597  98.7877 122.3852 0002214  83.4074 276.7360 14.29347081223799
H-2A R/B                
1 27601U 02056E   26163.11701358  .00000140  00000+0  63909-4 0  9998
2 27601  98.3311 119.9764 0069001 239.8962 130.0036 14.33819873227646
CZ-4B R/B               
1 28059U 03049C   26163.28024595  .00000293  00000+0  78793-4 0  9994
2 28059  98.6896 161.9314 0047111 303.9306  55.7415 14.55097165200355
CZ-2C R/B               
1 28222U 04012C   26162.96191833  .00091541  00000+0  53674-3 0  9997
2 28222  97.7094 238.0208 0008964 306.0599  53.9836 15.77982003219071
SL-16 R/B               
1 28353U 04021B   26163.07002020 -.00000276  00000+0 -11894-3 0  9999
2 28353  71.0016  34.4294 0007438 260.6285  99.3996 14.14610661136189
CZ-4B R/B               
1 28415U 04035C   26163.09865014  .00007464  00000+0  25172-3 0  9993
2 28415  97.3372 196.2292 0030512 356.5151   3.5873 15.30552576194347
CZ-2C R/B               
1 28480U 04046B   26163.28332357  .00000049  00000+0  33937-4 0  9998
2 28480  98.1949  72.3704 0138267 234.8661 123.9500 14.27025510121993
ARIANE 5 R/B            
1 28499U 04049H   26163.28031602  .00000666  00000+0  79512-4 0  9994
2 28499  98.2717 335.3439 0084807  45.1959 315.6109 14.85442988159832
CZ-2D R/B               
1 28738U 05024B   26163.30941105  .00060895  00000+0  52602-3 0  9995
2 28738  97.3487 182.4962 0004215  64.2592 295.9104 15.69032407154579
ALOS (DAICHI)           
1 28931U 06002A   26163.12170941  .00000860  00000+0  15164-3 0  9997
2 28931  98.1322 118.7049 0001636  58.0937 302.0428 14.70039856 87353
